ONEWEB-0492             
1 54114U 22138B   25241.87172356 -.00000068  00000+0 -20198-3 0  9992
2 54114  87.9272   2.8902 0001579 100.1032 260.0279 13.19723871138417
ONEWEB-0495             
1 54115U 22138C   25241.84962561  .00000017  00000+0  10457-4 0  9995
2 54115  87.9263   2.9046 0001473  73.1587 286.9708 13.19725625138395
ONEWEB-0497             
1 54116U 22138D   25241.86226582 -.00000004  00000+0 -43507-4 0  9994
2 54116  87.9277   2.8767 0001726  95.1976 264.9354 13.19725075138388
ONEWEB-0499             
1 54117U 22138E   25241.84487117  .00000041  00000+0  69434-4 0  9992
2 54117  87.9275   2.8982 0001983  89.9230 270.2130 13.19727158138392
ONEWEB-0500             
1 54118U 22138F   25241.84805460  .00000172  00000+0  39668-3 0  9998
2 54118  87.9279   2.8829 0001751 100.3960 259.7370 13.19723971138407
ONEWEB-0501             
1 54119U 22138G   25241.87805389 -.00000026  00000+0 -96590-4 0  9990
2 54119  87.9277   2.8694 0001615  83.7643 276.3674 13.19726490138385
ONEWEB-0502             
1 54120U 22138H   25241.86382747 -.00000020  00000+0 -81739-4 0  9992
2 54120  87.9276   2.8554 0001793  88.5134 271.6204 13.19727010138405
ONEWEB-0503             
1 54121U 22138J   25241.85278513 -.00000026  00000+0 -98191-4 0  9993
2 54121  87.9276   2.8621 0002075  96.1586 263.9783 13.19724979138396
